#aV2010  6 17  0  0   .00000000      96 DD+AD WGS84 FIT  NGA
## 1588 345600.00000000   900.00000000 55364  .0000000000000
+   31     1  2  3  4  5  6  7  8  9 10 11 12 13 14 15 16 17
+         18 19 20 21 22 23 24 26 27 28 29 30 31 32  0  0  0
+          0  0  0  0  0  0  0  0  0  0  0  0  0  0  0  0  0
+          0  0  0  0  0  0  0  0  0  0  0  0  0  0  0  0  0
+          0  0  0  0  0  0  0  0  0  0  0  0  0  0  0  0  0
++         0  0  0  0  0  0  0  0  0  0  0  0  0  0  0  0  0
++         0  0  0  0  0  0  0  0  0  0  0  0  0  0  0  0  0
++         0  0  0  0  0  0  0  0  0  0  0  0  0  0  0  0  0
++         0  0  0  0  0  0  0  0  0  0  0  0  0  0  0  0  0
++         0  0  0  0  0  0  0  0  0  0  0  0  0  0  0  0  0
%c cc cc ccc ccc cccc cccc cccc cccc ccccc ccccc ccccc ccccc
%c cc cc ccc ccc cccc cccc cccc cccc ccccc ccccc ccccc ccccc
%f  0.0000000  0.000000000  0.00000000000  0.000000000000000
%f  0.0000000  0.000000000  0.00000000000  0.000000000000000
%i    0    0    0    0      0      0      0      0         0
%i    0    0    0    0      0      0      0      0         0
/*      NGA, ST. LOUIS,MO.                                  
/*   EPHEMERIS COMPUTED FROM  3 DAYS OF DATA                
/* CCCCCCCCCCCCCCCCCCCCCCCCCCCCCCCCCCCCCCCCCCCCCCCCCCCCCCCCC
/* CCCCCCCCCCCCCCCCCCCCCCCCCCCCCCCCCCCCCCCCCCCCCCCCCCCCCCCCC
*  2010  6 17  2 45   .00000000                                                 
P  1   1422.171091  17610.129618 -19920.596713   -131.495600                    
V  1 -19016.228555  16336.800969  13307.824583      -.040149                    
P  2 -13851.882349 -19569.635480 -11926.038168    265.259810                    
V  2  -1131.264338 -15172.034087  25786.560470       .032590                    
P  3  23321.315117  10407.059241  -8283.299087    569.378517                    
V  3 -10388.650261   1442.936471 -28375.005238       .051624                    
P  4  -5784.595266 -25718.127633    168.550234    105.512784                    
V  4   3833.863720   -451.690457  31488.281449       .081225                    
P  5 -14678.866329  -6598.196112 -21158.476024     -7.744823                    
V  5  19105.791976 -18837.273717  -7302.751527      -.022161                    
P  6  20136.377299  13389.952025 -10979.251814    605.265217                    
V  6 -14527.075696   -474.206365 -26629.300821      -.128622                    
P  7   7961.079569 -18387.519644 -17358.764774     -1.257148                    
V  7   6476.203261  21146.103074 -19611.017701      -.002236                    
P  8    986.868575 -25175.142361  -7497.115206      5.788151                    
V  8   3571.081155   9166.388805 -30878.502632       .001645                    
P  9 -15175.801217  -2025.467621  21164.391413     12.968340                    
V  9  -6580.775545 -27331.484039  -7115.440566       .021301                    
P 10  -5523.717695 -15225.451266 -21176.345885    -44.784802                    
V 10  20360.115157 -17070.556590   7366.967141      -.008408                    
P 11  16367.362075  -4134.913386  20273.783158    -69.523715                    
V 11  11437.123348  24077.342504  -3900.249520      -.024538                    
P 12 -21938.997515   9435.321499  11500.599619   -103.337669                    
V 12   9250.174029 -11478.313165  27318.116097       .041230                    
P 13  16208.482441  -7614.502282 -19770.020082    303.169810                    
V 13  22796.570143   9549.414008  15083.863402      -.005062                    
P 14   4602.109678  16203.903863  20708.752477     57.867122                    
V 14 -24584.978546  -8099.077625  11750.173220       .041924                    
P 15 -25900.231226  -5775.228476   2204.228049   -254.951368                    
V 15  -1863.456080  -3582.208783 -31351.764081       .065435                    
P 16   9926.732660  11165.076844 -21922.398938    -82.184223                    
V 16 -20975.950563  18381.325973    136.946315      -.036732                    
P 17  -2610.929234 -16304.159394  20951.040291    157.040761                    
V 17  25208.693070   7593.499428   8889.613168       .020642                    
P 18 -16502.437704  19935.305897   5258.747217     75.128489                    
V 18  -7288.752359   1498.851490 -30508.348710       .024015                    
P 19  25471.779256   7315.891511   3536.151301    -42.815221                    
V 19   3155.762059   4043.035952 -31061.482351      -.028134                    
P 20  21732.746892 -11750.933554   9547.278154     54.550069                    
V 20  -6463.959383  11040.101298  27958.933894      -.005204                    
P 21  -6107.491797  21111.875088 -14113.105510    -67.624566                    
V 21  -7241.860294 -17696.842489 -23418.135743      -.026139                    
P 22  -6849.554775  20873.952082  15025.992004    169.552655                    
V 22 -15877.841724  10580.275450 -22273.319769      -.009558                    
P 23  23113.053976  -2281.213589 -13202.733399    366.704327                    
V 23  15275.096480   6718.925393  25312.020937      -.014844                    
P 24   4273.133439  26354.726537   -584.444014    296.824370                    
V 24  -3076.059191   -301.745897 -31309.296078       .031669                    
P 26 -25482.277122  -6556.330770   4392.950884    -67.269715                    
V 26  -5243.652758  -3667.363617 -31492.283931      -.056174                    
P 27 -16302.098396  -5891.529948  20852.602092    161.711396                    
V 27  -6283.920919 -24061.239946 -11950.347912       .034378                    
P 28   9265.468299 -20749.383950  13984.367805    -13.315567                    
V 28  14172.817406  -9691.135047 -24894.009463       .011870                    
P 29 -16802.463841   8165.517546 -18771.186021    127.948982                    
V 29 -22299.216966  -9114.972466  15957.039159       .027841                    
P 30 -19066.353363  18393.142593   1047.629325    252.526007                    
V 30   -882.065660  -3400.198534  31662.101596       .034843                    
P 31   7042.166369  25432.891879  -1774.675852    -30.368897                    
V 31  -1839.134002   2995.599474  32121.095270       .023350                    
P 32  21356.782323  -2826.175608  15644.633061    -17.366548                    
V 32 -13942.571473  13657.091892  22314.478639      -.084434                    
EOF
